[{"OBJECT_NAME":"KUIPER-00097","OBJECT_ID":"2025-171E","EPOCH":"2026-03-09T11:19:50.774880","MEAN_MOTION":14.79937818,"ECCENTRICITY":4.755e-5,"INCLINATION":51.9006,"RA_OF_ASC_NODE":161.6726,"ARG_OF_PERICENTER":76.0557,"MEAN_ANOMALY":284.0458,"EPHEMERIS_TYPE":0,"CLASSIFICATION_TYPE":"U","NORAD_CAT_ID":65136,"ELEMENT_SET_NO":999,"REV_AT_EPOCH":3281,"BSTAR":0.00077246704,"MEAN_MOTION_DOT":5.673e-5,"MEAN_MOTION_DDOT":0},{"OBJECT_NAME":"DELTA 1 DEB","OBJECT_ID":"1975-004AN","EPOCH":"2026-03-09T23:12:54.859104","MEAN_MOTION":14.86279271,"ECCENTRICITY":0.00227404,"INCLINATION":98.3675,"RA_OF_ASC_NODE":250.34,"ARG_OF_PERICENTER":236.8085,"MEAN_ANOMALY":123.0948,"EPHEMERIS_TYPE":0,"CLASSIFICATION_TYPE":"U","NORAD_CAT_ID":8956,"ELEMENT_SET_NO":999,"REV_AT_EPOCH":64723,"BSTAR":0.00043206902,"MEAN_MOTION_DOT":3.758e-5,"MEAN_MOTION_DDOT":0}]
